[{"OBJECT_NAME":"STARLINK-5506","OBJECT_ID":"2023-021Z","EPOCH":"2026-03-09T17:15:17.335296","MEAN_MOTION":14.98328506,"ECCENTRICITY":0.00031126,"INCLINATION":70.0012,"RA_OF_ASC_NODE":184.4684,"ARG_OF_PERICENTER":261.3518,"MEAN_ANOMALY":98.7288,"EPHEMERIS_TYPE":0,"CLASSIFICATION_TYPE":"U","NORAD_CAT_ID":55651,"ELEMENT_SET_NO":999,"REV_AT_EPOCH":16879,"BSTAR":-3.9269418e-5,"MEAN_MOTION_DOT":-5.62e-6,"MEAN_MOTION_DDOT":0},{"OBJECT_NAME":"COSMOS 2251 DEB","OBJECT_ID":"1993-036SU","EPOCH":"2026-03-09T16:21:38.417760","MEAN_MOTION":15.03076437,"ECCENTRICITY":0.00203067,"INCLINATION":74.0425,"RA_OF_ASC_NODE":271.4678,"ARG_OF_PERICENTER":270.4432,"MEAN_ANOMALY":89.443,"EPHEMERIS_TYPE":0,"CLASSIFICATION_TYPE":"U","NORAD_CAT_ID":34451,"ELEMENT_SET_NO":999,"REV_AT_EPOCH":89938,"BSTAR":0.0023702619,"MEAN_MOTION_DOT":0.00032214,"MEAN_MOTION_DDOT":0}]
